{"fetched_at":"2026-03-29T02:12:04Z","count":15717,"tles":[{"name":"SDA_1683","line1":"1 65993U 25230V   26086.87335064 -.00000967  00000+0 -89182-3 0  9996","line2":"2 65993  81.2974 287.1832 0000754  97.2480 262.8762 13.83338856 22557","category":"Other"}]}