{
  "norad_id": 65993,
  "name": "SDA_1683",
  "history": [
    {
      "epoch": "2026-03-27T20:57:37.495296",
      "apogee_km": 952.6207584569447,
      "perigee_km": 951.5153635337465,
      "latitude_deg": -69.17658651485601,
      "longitude_deg": 47.14166144002229,
      "semi_major_axis_km": 7330.205060995345,
      "eccentricity": 7.54e-05,
      "inclination_deg": 81.2974,
      "raan_deg": 287.1832,
      "arg_perigee_deg": 97.248,
      "mean_anomaly_deg": 262.8762,
      "mean_motion_rev_day": 13.83338856
    }
  ]
}